GONETS-M 15             
1 44906U 19096B   26088.22337479  .00000011  00000+0  48843-5 0  9992
2 44906  82.5249 134.6706 0014919 355.8356   4.2598 12.42868355283714
GONETS-M 16             
1 44907U 19096C   26088.17045993  .00000044  00000+0  24843-3 0  9992
2 44907  82.5193 133.6938 0011625  39.1530 321.0389 12.42888956283690
RS-44 & BREEZE-KM R/B   
1 44909U 19096E   26088.10460712  .00000006  00000+0 -14518-4 0  9995
2 44909  82.5244  32.9132 0217063 331.9292  27.0239 12.79747751292108
JILIN-1 KUANFU 01       
1 45016U 20003A   26088.19462801  .00004706  00000+0  29142-3 0  9993
2 45016  97.5074 163.7248 0009062 208.3847 151.6890 15.10230691343255
XINGYUN-2 01            
1 45602U 20028A   26088.17772036  .00002505  00000+0  15180-3 0  9995
2 45602  97.4860  82.1960 0010753 114.4694 245.7658 15.11432205322754
XINGYUN-2 02            
1 45603U 20028B   26088.07634076  .00001043  00000+0  65897-4 0  9993
2 45603  97.5108  95.4883 0010933 178.0160 182.1116 15.11186286322732
HAIYANG-1D              
1 45721U 20036A   26088.16108336  .00000552  00000+0  21214-3 0  9996
2 45721  98.4486  31.6049 0003429  46.6634 313.4836 14.34213808303503
M2 PATHFINDER           
1 45727U 20037E   26088.03657925  .00002520  00000+0  18523-3 0  9998
2 45727  97.8173 278.3730 0013136  67.7349 292.5268 15.04301131313440
GAOFEN DUOMO (GFDM)     
1 45856U 20042A   26088.19095113  .00000596  00000+0  91843-4 0  9997
2 45856  97.7832 150.9593 0010589 337.1386  22.9352 14.76874383309200
ZIYUAN 3-03 (ZY 3-03)   
1 45939U 20051A   26088.20648711  .00005864  00000+0  26509-3 0  9998
2 45939  97.2898 158.4908 0005391 211.8835 148.2076 15.21296853315184
TYVAK-0172              
1 46267U 20059C   26088.21814558  .01188743  00000+0  38692-2 0  9990
2 46267  97.7175 332.9318 0003112 122.0020 238.1554 15.88372257306203
ION-MK01                
1 46274U 20061C   26088.21717932  .00413207  72526-4  92714-3 0  9997
2 46274  97.1932 168.3349 0004331 230.2686 129.8211 15.97723566310759
NEMO-HD                 
1 46277U 20061F   26088.20846583  .00014456  00000+0  33024-3 0  9999
2 46277  97.2009 151.0317 0001375  66.1519 293.9873 15.42952775309647
3CAT-5A                 
1 46292U 20061W   26088.11622140  .00020156  00000+0  44996-3 0  9991
2 46292  97.2494 151.2175 0003155  78.5100 281.6503 15.43570464308664
3CAT-5B                 
1 46293U 20061X   26088.16557134  .00026232  00000+0  56181-3 0  9997
2 46293  97.2493 152.1010 0003267  75.3739 284.7872 15.44748275308693
NAPA-1                  
1 46320U 20061BA  26088.21362058  .00068386  00000+0  87420-3 0  9999
2 46320  97.2550 160.3052 0001150 142.8435 217.2901 15.59016894309244
JILIN-1 GAOFEN 3B       
1 46454U 20065A   26088.10563096  .00321747  00000+0  11282-2 0  9999
2 46454  97.2303 146.7240 0002233 175.1653 184.9641 15.88447676307796
