[{"OBJECT_NAME":"GONETS-M 15","OBJECT_ID":"2019-096B","EPOCH":"2026-03-29T05:21:39.581856","MEAN_MOTION":12.42868355,"ECCENTRICITY":0.0014919,"INCLINATION":82.5249,"RA_OF_ASC_NODE":134.6706,"ARG_OF_PERICENTER":355.8356,"MEAN_ANOMALY":4.2598,"EPHEMERIS_TYPE":0,"CLASSIFICATION_TYPE":"U","NORAD_CAT_ID":44906,"ELEMENT_SET_NO":999,"REV_AT_EPOCH":28371,"BSTAR":4.8843e-6,"MEAN_MOTION_DOT":1.1e-7,"MEAN_MOTION_DDOT":0},{"OBJECT_NAME":"GONETS-M 16","OBJECT_ID":"2019-096C","EPOCH":"2026-03-29T04:05:27.737952","MEAN_MOTION":12.42888956,"ECCENTRICITY":0.0011625,"INCLINATION":82.5193,"RA_OF_ASC_NODE":133.6938,"ARG_OF_PERICENTER":39.153,"MEAN_ANOMALY":321.0389,"EPHEMERIS_TYPE":0,"CLASSIFICATION_TYPE":"U","NORAD_CAT_ID":44907,"ELEMENT_SET_NO":999,"REV_AT_EPOCH":28369,"BSTAR":0.00024843,"MEAN_MOTION_DOT":4.4e-7,"MEAN_MOTION_DDOT":0},{"OBJECT_NAME":"RS-44 & BREEZE-KM R/B","OBJECT_ID":"2019-096E","EPOCH":"2026-03-29T02:30:38.055168","MEAN_MOTION":12.79747751,"ECCENTRICITY":0.0217063,"INCLINATION":82.5244,"RA_OF_ASC_NODE":32.9132,"ARG_OF_PERICENTER":331.9292,"MEAN_ANOMALY":27.0239,"EPHEMERIS_TYPE":0,"CLASSIFICATION_TYPE":"U","NORAD_CAT_ID":44909,"ELEMENT_SET_NO":999,"REV_AT_EPOCH":29210,"BSTAR":-1.4518e-5,"MEAN_MOTION_DOT":6.0e-8,"MEAN_MOTION_DDOT":0},{"OBJECT_NAME":"JILIN-1 KUANFU 01","OBJECT_ID":"2020-003A","EPOCH":"2026-03-29T04:40:15.860064","MEAN_MOTION":15.10230691,"ECCENTRICITY":0.0009062,"INCLINATION":97.5074,"RA_OF_ASC_NODE":163.7248,"ARG_OF_PERICENTER":208.3847,"MEAN_ANOMALY":151.689,"EPHEMERIS_TYPE":0,"CLASSIFICATION_TYPE":"U","NORAD_CAT_ID":45016,"ELEMENT_SET_NO":999,"REV_AT_EPOCH":34325,"BSTAR":0.00029142,"MEAN_MOTION_DOT":4.706e-5,"MEAN_MOTION_DDOT":0},{"OBJECT_NAME":"XINGYUN-2 01","OBJECT_ID":"2020-028A","EPOCH":"2026-03-29T04:15:55.039104","MEAN_MOTION":15.11432205,"ECCENTRICITY":0.0010753,"INCLINATION":97.486,"RA_OF_ASC_NODE":82.196,"ARG_OF_PERICENTER":114.4694,"MEAN_ANOMALY":245.7658,"EPHEMERIS_TYPE":0,"CLASSIFICATION_TYPE":"U","NORAD_CAT_ID":45602,"ELEMENT_SET_NO":999,"REV_AT_EPOCH":32275,"BSTAR":0.0001518,"MEAN_MOTION_DOT":2.505e-5,"MEAN_MOTION_DDOT":0},{"OBJECT_NAME":"XINGYUN-2 02","OBJECT_ID":"2020-028B","EPOCH":"2026-03-29T01:49:55.841664","MEAN_MOTION":15.11186286,"ECCENTRICITY":0.0010933,"INCLINATION":97.5108,"RA_OF_ASC_NODE":95.4883,"ARG_OF_PERICENTER":178.016,"MEAN_ANOMALY":182.1116,"EPHEMERIS_TYPE":0,"CLASSIFICATION_TYPE":"U","NORAD_CAT_ID":45603,"ELEMENT_SET_NO":999,"REV_AT_EPOCH":32273,"BSTAR":6.5897e-5,"MEAN_MOTION_DOT":1.043e-5,"MEAN_MOTION_DDOT":0},{"OBJECT_NAME":"HAIYANG-1D","OBJECT_ID":"2020-036A","EPOCH":"2026-03-29T03:51:57.602304","MEAN_MOTION":14.34213808,"ECCENTRICITY":0.0003429,"INCLINATION":98.4486,"RA_OF_ASC_NODE":31.6049,"ARG_OF_PERICENTER":46.6634,"MEAN_ANOMALY":313.4836,"EPHEMERIS_TYPE":0,"CLASSIFICATION_TYPE":"U","NORAD_CAT_ID":45721,"ELEMENT_SET_NO":999,"REV_AT_EPOCH":30350,"BSTAR":0.00021214,"MEAN_MOTION_DOT":5.52e-6,"MEAN_MOTION_DDOT":0},{"OBJECT_NAME":"M2 PATHFINDER","OBJECT_ID":"2020-037E","EPOCH":"2026-03-29T00:52:40.447200","MEAN_MOTION":15.04301131,"ECCENTRICITY":0.0013136,"INCLINATION":97.8173,"RA_OF_ASC_NODE":278.373,"ARG_OF_PERICENTER":67.7349,"MEAN_ANOMALY":292.5268,"EPHEMERIS_TYPE":0,"CLASSIFICATION_TYPE":"U","NORAD_CAT_ID":45727,"ELEMENT_SET_NO":999,"REV_AT_EPOCH":31344,"BSTAR":0.00018523,"MEAN_MOTION_DOT":2.52e-5,"MEAN_MOTION_DDOT":0},{"OBJECT_NAME":"GAOFEN DUOMO (GFDM)","OBJECT_ID":"2020-042A","EPOCH":"2026-03-29T04:34:58.177632","MEAN_MOTION":14.76874383,"ECCENTRICITY":0.0010589,"INCLINATION":97.7832,"RA_OF_ASC_NODE":150.9593,"ARG_OF_PERICENTER":337.1386,"MEAN_ANOMALY":22.9352,"EPHEMERIS_TYPE":0,"CLASSIFICATION_TYPE":"U","NORAD_CAT_ID":45856,"ELEMENT_SET_NO":999,"REV_AT_EPOCH":30920,"BSTAR":9.1843e-5,"MEAN_MOTION_DOT":5.96e-6,"MEAN_MOTION_DDOT":0},{"OBJECT_NAME":"ZIYUAN 3-03 (ZY 3-03)","OBJECT_ID":"2020-051A","EPOCH":"2026-03-29T04:57:20.486304","MEAN_MOTION":15.21296853,"ECCENTRICITY":0.0005391,"INCLINATION":97.2898,"RA_OF_ASC_NODE":158.4908,"ARG_OF_PERICENTER":211.8835,"MEAN_ANOMALY":148.2076,"EPHEMERIS_TYPE":0,"CLASSIFICATION_TYPE":"U","NORAD_CAT_ID":45939,"ELEMENT_SET_NO":999,"REV_AT_EPOCH":31518,"BSTAR":0.00026509,"MEAN_MOTION_DOT":5.864e-5,"MEAN_MOTION_DDOT":0},{"OBJECT_NAME":"TYVAK-0172","OBJECT_ID":"2020-059C","EPOCH":"2026-03-29T05:14:07.778112","MEAN_MOTION":15.88372257,"ECCENTRICITY":0.0003112,"INCLINATION":97.7175,"RA_OF_ASC_NODE":332.9318,"ARG_OF_PERICENTER":122.002,"MEAN_ANOMALY":238.1554,"EPHEMERIS_TYPE":0,"CLASSIFICATION_TYPE":"U","NORAD_CAT_ID":46267,"ELEMENT_SET_NO":999,"REV_AT_EPOCH":30620,"BSTAR":0.0038692,"MEAN_MOTION_DOT":0.01188743,"MEAN_MOTION_DDOT":0},{"OBJECT_NAME":"ION-MK01","OBJECT_ID":"2020-061C","EPOCH":"2026-03-29T05:12:44.293248","MEAN_MOTION":15.97723566,"ECCENTRICITY":0.0004331,"INCLINATION":97.1932,"RA_OF_ASC_NODE":168.3349,"ARG_OF_PERICENTER":230.2686,"MEAN_ANOMALY":129.8211,"EPHEMERIS_TYPE":0,"CLASSIFICATION_TYPE":"U","NORAD_CAT_ID":46274,"ELEMENT_SET_NO":999,"REV_AT_EPOCH":31075,"BSTAR":0.00092714,"MEAN_MOTION_DOT":0.00413207,"MEAN_MOTION_DDOT":7.2526e-5},{"OBJECT_NAME":"NEMO-HD","OBJECT_ID":"2020-061F","EPOCH":"2026-03-29T05:00:11.447712","MEAN_MOTION":15.42952775,"ECCENTRICITY":0.0001375,"INCLINATION":97.2009,"RA_OF_ASC_NODE":151.0317,"ARG_OF_PERICENTER":66.1519,"MEAN_ANOMALY":293.9873,"EPHEMERIS_TYPE":0,"CLASSIFICATION_TYPE":"U","NORAD_CAT_ID":46277,"ELEMENT_SET_NO":999,"REV_AT_EPOCH":30964,"BSTAR":0.00033024,"MEAN_MOTION_DOT":0.00014456,"MEAN_MOTION_DDOT":0},{"OBJECT_NAME":"3CAT-5A","OBJECT_ID":"2020-061W","EPOCH":"2026-03-29T02:47:21.528960","MEAN_MOTION":15.43570464,"ECCENTRICITY":0.0003155,"INCLINATION":97.2494,"RA_OF_ASC_NODE":151.2175,"ARG_OF_PERICENTER":78.51,"MEAN_ANOMALY":281.6503,"EPHEMERIS_TYPE":0,"CLASSIFICATION_TYPE":"U","NORAD_CAT_ID":46292,"ELEMENT_SET_NO":999,"REV_AT_EPOCH":30866,"BSTAR":0.00044996,"MEAN_MOTION_DOT":0.00020156,"MEAN_MOTION_DDOT":0},{"OBJECT_NAME":"3CAT-5B","OBJECT_ID":"2020-061X","EPOCH":"2026-03-29T03:58:25.363776","MEAN_MOTION":15.44748275,"ECCENTRICITY":0.0003267,"INCLINATION":97.2493,"RA_OF_ASC_NODE":152.101,"ARG_OF_PERICENTER":75.3739,"MEAN_ANOMALY":284.7872,"EPHEMERIS_TYPE":0,"CLASSIFICATION_TYPE":"U","NORAD_CAT_ID":46293,"ELEMENT_SET_NO":999,"REV_AT_EPOCH":30869,"BSTAR":0.00056181,"MEAN_MOTION_DOT":0.00026232,"MEAN_MOTION_DDOT":0},{"OBJECT_NAME":"NAPA-1","OBJECT_ID":"2020-061BA","EPOCH":"2026-03-29T05:07:36.818112","MEAN_MOTION":15.59016894,"ECCENTRICITY":0.000115,"INCLINATION":97.255,"RA_OF_ASC_NODE":160.3052,"ARG_OF_PERICENTER":142.8435,"MEAN_ANOMALY":217.2901,"EPHEMERIS_TYPE":0,"CLASSIFICATION_TYPE":"U","NORAD_CAT_ID":46320,"ELEMENT_SET_NO":999,"REV_AT_EPOCH":30924,"BSTAR":0.0008742,"MEAN_MOTION_DOT":0.00068386,"MEAN_MOTION_DDOT":0},{"OBJECT_NAME":"JILIN-1 GAOFEN 3B","OBJECT_ID":"2020-065A","EPOCH":"2026-03-29T02:32:06.514944","MEAN_MOTION":15.88447676,"ECCENTRICITY":0.0002233,"INCLINATION":97.2303,"RA_OF_ASC_NODE":146.724,"ARG_OF_PERICENTER":175.1653,"MEAN_ANOMALY":184.9641,"EPHEMERIS_TYPE":0,"CLASSIFICATION_TYPE":"U","NORAD_CAT_ID":46454,"ELEMENT_SET_NO":999,"REV_AT_EPOCH":30779,"BSTAR":0.0011282,"MEAN_MOTION_DOT":0.00321747,"MEAN_MOTION_DDOT":0}]
